[{"OBJECT_NAME":"STARLINK-32491","OBJECT_ID":"2024-216M","EPOCH":"2026-03-09T21:58:01.397280","MEAN_MOTION":15.27573278,"ECCENTRICITY":0.00017465,"INCLINATION":43.0022,"RA_OF_ASC_NODE":262.53,"ARG_OF_PERICENTER":286.5285,"MEAN_ANOMALY":73.5375,"EPHEMERIS_TYPE":0,"CLASSIFICATION_TYPE":"U","NORAD_CAT_ID":62043,"ELEMENT_SET_NO":999,"REV_AT_EPOCH":7382,"BSTAR":0.00094974963,"MEAN_MOTION_DOT":0.0002596,"MEAN_MOTION_DDOT":0},{"OBJECT_NAME":"OBJECT A","OBJECT_ID":"2025-013A","EPOCH":"2026-03-09T23:29:31.895232","MEAN_MOTION":15.29260221,"ECCENTRICITY":0.0010321,"INCLINATION":97.6364,"RA_OF_ASC_NODE":244.5149,"ARG_OF_PERICENTER":282.3775,"MEAN_ANOMALY":77.6309,"EPHEMERIS_TYPE":0,"CLASSIFICATION_TYPE":"U","NORAD_CAT_ID":62729,"ELEMENT_SET_NO":999,"REV_AT_EPOCH":6276,"BSTAR":0.0013206527,"MEAN_MOTION_DOT":0.00037616,"MEAN_MOTION_DDOT":0}]
